NORAD_CAT_ID,OBJECT_NAME,OBJECT_TYPE,EPOCH,MEAN_MOTION,ECCENTRICITY,INCLINATION,RA_OF_ASC_NODE,ARG_OF_PERICENTER,MEAN_ANOMALY,BSTAR,MEAN_MOTION_DOT,MEAN_MOTION_DDOT,TLE_LINE0,TLE_LINE1,TLE_LINE2,SEMIMAJOR_AXIS,PERIOD,APOGEE,PERIGEE,DECAYED
49768.0,STARLINK-3196,PAYLOAD,2022-12-21 03:48:23,15.08826888,0.0002427,53.2183,11.803,28.8503,331.2623,-0.00023096,-3.961e-05,0.0,0 STARLINK-3196,1 49768U 21115AW  22355.15860674 -.00003961  00000-0 -23096-3 0  9992,2 49768  53.2183  11.8030 0002427  28.8503 331.2623 15.08826888 59471,6917.92,95.438,541.464,538.106,0.0
49768.0,STARLINK-3196,PAYLOAD,2022-12-21 10:09:57,15.08825275,0.0002211,53.2182,10.6132,31.7854,328.3271,3.1975e-05,2.2e-06,0.0,0 STARLINK-3196,1 49768U 21115AW  22355.42357712  .00000220  00000-0  31975-4 0  9995,2 49768  53.2182  10.6132 0002211  31.7854 328.3271 15.08825275 58400,6917.925,95.438,541.32,538.261,0.0
49768.0,STARLINK-3196,PAYLOAD,2022-12-22 05:14:33,15.08845191,0.0002395,53.2172,7.0454,32.7464,327.3676,4.7151e-05,4.62e-06,0.0,0 STARLINK-3196,1 49768U 21115AW  22356.21844290  .00000462  00000-0  47151-4 0  9996,2 49768  53.2172   7.0454 0002395  32.7464 327.3676 15.08845191 59630,6917.865,95.437,541.386,538.073,0.0
49768.0,STARLINK-3196,PAYLOAD,2022-12-22 08:25:19,15.08841485,0.0002283,53.2175,6.4506,34.2681,325.8458,5.2791e-05,5.52e-06,0.0,0 STARLINK-3196,1 49768U 21115AW  22356.35092506  .00000552  00000-0  52791-4 0  9992,2 49768  53.2175   6.4506 0002283  34.2681 325.8458 15.08841485 58540,6917.876,95.437,541.32,538.161,0.0
49768.0,STARLINK-3196,PAYLOAD,2022-12-22 17:57:39,15.08835167,0.0002339,53.2175,4.667,33.2794,326.8345,-3.4811e-06,-3.44e-06,0.0,0 STARLINK-3196,1 49768U 21115AW  22356.74837007 -.00000344  00000-0 -34811-5 0  9993,2 49768  53.2175   4.6670 0002339  33.2794 326.8345 15.08835167 58601,6917.895,95.438,541.378,538.1419999999998,0.0
49768.0,STARLINK-3196,PAYLOAD,2022-12-22 22:43:48,15.0883841,0.0002303,53.2176,3.7755,34.5379,325.5763,0.00020798,3.023e-05,0.0,0 STARLINK-3196,1 49768U 21115AW  22356.94708976  .00003023  00000-0  20798-3 0  9999,2 49768  53.2176   3.7755 0002303  34.5379 325.5763 15.08838410 59740,6917.885,95.438,541.3430000000002,538.1569999999998,0.0
49768.0,STARLINK-3196,PAYLOAD,2022-12-23 09:51:30,15.08834236,0.0002267,53.2166,1.6931,33.9079,326.2057,0.00017549,2.505e-05,0.0,0 STARLINK-3196,1 49768U 21115AW  22357.41077441  .00002505  00000-0  17549-3 0  9992,2 49768  53.2166   1.6931 0002267  33.9079 326.2057 15.08834236 59815,6917.898,95.438,541.331,538.195,0.0
49768.0,STARLINK-3196,PAYLOAD,2022-12-23 17:48:26,15.08840254,0.0002293,53.2172,0.2064,31.4606,328.6523,0.00022734,3.332e-05,0.0,0 STARLINK-3196,1 49768U 21115AW  22357.74197238  .00003332  00000-0  22734-3 0  9996,2 49768  53.2172   0.2064 0002293  31.4606 328.6523 15.08840254 58755,6917.88,95.438,541.331,538.158,0.0
49768.0,STARLINK-3196,PAYLOAD,2022-12-24 00:09:58,15.08849567,0.0002473,53.2175,359.0171,34.1988,325.9163,0.00024957,3.687e-05,0.0,0 STARLINK-3196,1 49768U 21115AW  22358.00692851  .00003687  00000-0  24957-3 0  9999,2 49768  53.2175 359.0171 0002473  34.1988 325.9163 15.08849567 59909,6917.851,95.437,541.427,538.005,0.0
49768.0,STARLINK-3196,PAYLOAD,2022-12-24 09:42:17,15.08855885,0.0002415,53.2178,357.2329,34.2341,325.8807,0.00028643,4.275e-05,0.0,0 STARLINK-3196,1 49768U 21115AW  22358.40436370  .00004275  00000-0  28643-3 0  9995,2 49768  53.2178 357.2329 0002415  34.2341 325.8807 15.08855885 58854,6917.831999999999,95.437,541.367,538.026,0.0
49768.0,STARLINK-3196,PAYLOAD,2022-12-24 17:39:13,15.08843508,0.0002366,53.218,355.7457,35.3124,324.8024,0.00013914,1.927e-05,0.0,0 STARLINK-3196,1 49768U 21115AW  22358.73556890  .00001927  00000-0  13914-3 0  9997,2 49768  53.2180 355.7457 0002366  35.3124 324.8024 15.08843508 60018,6917.87,95.437,541.371,538.0980000000002,0.0
49768.0,STARLINK-3196,PAYLOAD,2022-12-25 06:22:17,15.08847206,0.0002351,53.2175,353.3664,36.9516,323.1637,0.00011669,1.57e-05,0.0,0 STARLINK-3196,1 49768U 21115AW  22359.26548563  .00001570  00000-0  11669-3 0  9993,2 49768  53.2175 353.3664 0002351  36.9516 323.1637 15.08847206 58986,6917.858,95.437,541.35,538.097,0.0
49768.0,STARLINK-3196,PAYLOAD,2022-12-25 22:16:09,15.08838716,0.0002359,53.2172,350.39300000000014,33.508,326.6061,-9.1994e-05,-1.752e-05,0.0,0 STARLINK-3196,1 49768U 21115AW  22359.92788962 -.00001752  00000-0 -91994-4 0  9999,2 49768  53.2172 350.3930 0002359  33.5080 326.6061 15.08838716 60194,6917.884,95.438,541.381,538.117,0.0
49768.0,STARLINK-3196,PAYLOAD,2022-12-26 09:23:52,15.08837864,0.0002472,53.218,348.31199999999984,33.2109,326.9038,-8.1864e-05,-1.591e-05,0.0,0 STARLINK-3196,1 49768U 21115AW  22360.39157558 -.00001591  00000-0 -81864-4 0  9999,2 49768  53.2180 348.3120 0002472  33.2109 326.9038 15.08837864 59150,6917.887,95.438,541.462,538.0419999999998,0.0
49768.0,STARLINK-3196,PAYLOAD,2022-12-26 23:42:19,15.088447699999998,0.0002432,53.2183,345.6359,33.5186,326.596,0.0001302,1.785e-05,0.0,0 STARLINK-3196,1 49768U 21115AW  22360.98772542  .00001785  00000-0  13020-3 0  9991,2 49768  53.2183 345.6359 0002432  33.5186 326.5960 15.08844770 60359,6917.866,95.437,541.413,538.048,0.0
49768.0,STARLINK-3196,PAYLOAD,2022-12-27 09:14:37,15.08852585,0.0002452,53.2183,343.8518,32.1973,327.9168,1.8856e-06,-2.58e-06,0.0,0 STARLINK-3196,1 49768U 21115AW  22361.38516182 -.00000258  00000-0  18856-5 0  9991,2 49768  53.2183 343.8518 0002452  32.1973 327.9168 15.08852585 59308,6917.842,95.437,541.403,538.011,0.0
49768.0,STARLINK-3196,PAYLOAD,2022-12-27 23:33:06,15.08844815,0.0002253,53.2183,341.1757,34.9505,325.1635,0.00023797,3.502e-05,0.0,0 STARLINK-3196,1 49768U 21115AW  22361.98132144  .00003502  00000-0  23797-3 0  9991,2 49768  53.2183 341.1757 0002253  34.9505 325.1635 15.08844815 59399,6917.866,95.437,541.289,538.172,0.0
49768.0,STARLINK-3196,PAYLOAD,2022-12-28 23:23:53,15.08838957,0.0002279999999999,53.2168,336.7132,33.051,327.0625,-0.00012602,-2.293e-05,0.0,0 STARLINK-3196,1 49768U 21115AW  22362.97492467 -.00002293  00000-0 -12602-3 0  9999,2 49768  53.2168 336.7132 0002280  33.0510 327.0625 15.08838957 60656,6917.884,95.438,541.326,538.1709999999998,0.0
49768.0,STARLINK-3196,PAYLOAD,2022-12-29 07:20:49,15.08837869,0.0002334999999999,53.2178,335.2274,37.0721,323.0432,-0.00012604,-2.294e-05,0.0,0 STARLINK-3196,1 49768U 21115AW  22363.30612642 -.00002294  00000-0 -12604-3 0  9999,2 49768  53.2178 335.2274 0002335  37.0721 323.0432 15.08837869 59591,6917.887,95.438,541.367,538.137,0.0
49768.0,STARLINK-3196,PAYLOAD,2022-12-29 15:17:45,15.08835585,0.0002677,53.2186,333.7403,38.4052,321.713,-8.6628e-06,-4.26e-06,0.0,0 STARLINK-3196,1 49768U 21115AW  22363.63733584 -.00000426  00000-0 -86628-5 0  9998,2 49768  53.2186 333.7403 0002677  38.4052 321.7130 15.08835585 60751,6917.894,95.438,541.611,537.9069999999998,0.0
49768.0,STARLINK-3196,PAYLOAD,2022-12-30 05:36:12,15.08850047,0.0002356999999999,53.2173,331.0634,34.0269,326.0874,0.00016341,2.314e-05,0.0,0 STARLINK-3196,1 49768U 21115AW  22364.23347930  .00002314  00000-0  16341-3 0  9990,2 49768  53.2173 331.0634 0002357  34.0269 326.0874 15.08850047 60844,6917.85,95.437,541.345,538.0840000000002,0.0
49768.0,STARLINK-3196,PAYLOAD,2022-12-31 07:02:22,15.08860461,0.0002274,53.2162,326.3055,29.0604,331.0514,0.00040233,6.124e-05,0.0,0 STARLINK-3196,1 49768U 21115AW  22365.29331443  .00006124  00000-0  40233-3 0  9999,2 49768  53.2162 326.3055 0002274  29.0604 331.0514 15.08860461 61008,6917.818,95.436,541.256,538.11,0.0
49768.0,STARLINK-3196,PAYLOAD,2022-12-31 14:59:17,15.0885495,0.0002225,53.2165,324.8193,26.6815,333.4291,0.00021044,3.064e-05,0.0,0 STARLINK-3196,1 49768U 21115AW  22365.62451325  .00003064  00000-0  21044-3 0  9997,2 49768  53.2165 324.8193 0002225  26.6815 333.4291 15.08854950 59944,6917.835,95.437,541.239,538.16,0.0
49768.0,STARLINK-3196,PAYLOAD,2023-01-01 06:53:09,15.08830206,0.0002460999999999,53.2165,321.8481,27.3602,332.7519,-0.00026071,-4.434e-05,0.0,0 STARLINK-3196,1 49768U 21115AW  23001.28692068 -.00004434  00000-0 -26071-3 0  9997,2 49768  53.2165 321.8481 0002461  27.3602 332.7519 15.08830206 61154,6917.91,95.438,541.4780000000002,538.073,0.0
49768.0,STARLINK-3196,PAYLOAD,2023-01-01 08:28:33,15.08826933,0.0002452,53.2163,321.5505,28.3136,331.7989,-0.00032222,-5.411e-05,0.0,0 STARLINK-3196,1 49768U 21115AW  23001.35316205 -.00005411  00000-0 -32222-3 0  9992,2 49768  53.2163 321.5505 0002452  28.3136 331.7989 15.08826933 60059,6917.92,95.438,541.482,538.089,0.0
49768.0,STARLINK-3196,PAYLOAD,2023-01-01 14:50:06,15.08815195,0.0002536,53.2166,320.3593,33.0791,327.036,-0.00045688,-7.548e-05,0.0,0 STARLINK-3196,1 49768U 21115AW  23001.61813046 -.00007548  00000-0 -45688-3 0  9999,2 49768  53.2166 320.3593 0002536  33.0791 327.0360 15.08815195 61206,6917.956,95.439,541.576,538.067,0.0
49768.0,STARLINK-3196,PAYLOAD,2023-01-02 06:43:58,15.08827717,0.0002401999999999,53.2168,317.385,31.6097,328.5039,8.102e-05,1.001e-05,0.0,0 STARLINK-3196,1 49768U 21115AW  23002.28053776  .00001001  00000-0  81020-4 0  9996,2 49768  53.2168 317.3850 0002402  31.6097 328.5039 15.08827717 61308,6917.918000000002,95.438,541.445,538.121,0.0
49768.0,STARLINK-3196,PAYLOAD,2023-01-03 12:56:18,15.08847811,0.0002471,53.2173,311.7361,31.4616,328.6524,0.00054888,8.46e-05,0.0,0 STARLINK-3196,1 49768U 21115AW  23003.53910361  .00008460  00000-0  54888-3 0  9994,2 49768  53.2173 311.7361 0002471  31.4616 328.6524 15.08847811 61497,6917.857,95.437,541.431,538.012,0.0
49768.0,STARLINK-3196,PAYLOAD,2023-01-04 04:50:10,15.0883291,0.0002475,53.2174,308.7632,32.9184,327.1961,5.8589e-05,6.44e-06,0.0,0 STARLINK-3196,1 49768U 21115AW  23004.20151052  .00000644  00000-0  58589-4 0  9992,2 49768  53.2174 308.7632 0002475  32.9184 327.1961 15.08832910 61599,6917.901999999999,95.438,541.479,538.055,0.0
